<?xml version="1.0" encoding="UTF-8"?>
<ndm xmlns:xsi="http://www.w3.org/2001/XMLSchema-instance" xsi:noNamespaceSchemaLocation="https://sanaregistry.org/r/ndmxml_unqualified/ndmxml-2.0.0-master-2.0.xsd">
<omm id="CCSDS_OMM_VERS" version="2.0">
<header><CREATION_DATE/><ORIGINATOR/></header><body><segment><metadata><OBJECT_NAME>KUIPER-00044</OBJECT_NAME><OBJECT_ID>2025-134F</OBJECT_ID><CENTER_NAME>EARTH</CENTER_NAME><REF_FRAME>TEME</REF_FRAME><TIME_SYSTEM>UTC</TIME_SYSTEM><MEAN_ELEMENT_THEORY>SGP4</MEAN_ELEMENT_THEORY></metadata><data><meanElements><EPOCH>2025-08-09T14:00:01.999872</EPOCH><MEAN_MOTION>15.10963054</MEAN_MOTION><ECCENTRICITY>.0012065</ECCENTRICITY><INCLINATION>51.8785</INCLINATION><RA_OF_ASC_NODE>106.8015</RA_OF_ASC_NODE><ARG_OF_PERICENTER>286.2965</ARG_OF_PERICENTER><MEAN_ANOMALY>45.2228</MEAN_ANOMALY></meanElements><tleParameters><EPHEMERIS_TYPE>0</EPHEMERIS_TYPE><CLASSIFICATION_TYPE>U</CLASSIFICATION_TYPE><NORAD_CAT_ID>64505</NORAD_CAT_ID><ELEMENT_SET_NO>999</ELEMENT_SET_NO><REV_AT_EPOCH>376</REV_AT_EPOCH><BSTAR>-.63073E-1</BSTAR><MEAN_MOTION_DOT>-.983131E-2</MEAN_MOTION_DOT><MEAN_MOTION_DDOT>0</MEAN_MOTION_DDOT></tleParameters></data></segment></body></omm>
<omm id="CCSDS_OMM_VERS" version="2.0">
<header><CREATION_DATE/><ORIGINATOR/></header><body><segment><metadata><OBJECT_NAME>KUIPER-00046</OBJECT_NAME><OBJECT_ID>2025-134G</OBJECT_ID><CENTER_NAME>EARTH</CENTER_NAME><REF_FRAME>TEME</REF_FRAME><TIME_SYSTEM>UTC</TIME_SYSTEM><MEAN_ELEMENT_THEORY>SGP4</MEAN_ELEMENT_THEORY></metadata><data><meanElements><EPOCH>2025-08-09T22:00:01.999584</EPOCH><MEAN_MOTION>15.16021844</MEAN_MOTION><ECCENTRICITY>.0009545</ECCENTRICITY><INCLINATION>51.8740</INCLINATION><RA_OF_ASC_NODE>104.0246</RA_OF_ASC_NODE><ARG_OF_PERICENTER>294.9108</ARG_OF_PERICENTER><MEAN_ANOMALY>302.8726</MEAN_ANOMALY></meanElements><tleParameters><EPHEMERIS_TYPE>0</EPHEMERIS_TYPE><CLASSIFICATION_TYPE>U</CLASSIFICATION_TYPE><NORAD_CAT_ID>64506</NORAD_CAT_ID><ELEMENT_SET_NO>999</ELEMENT_SET_NO><REV_AT_EPOCH>804</REV_AT_EPOCH><BSTAR>-.37944E-3</BSTAR><MEAN_MOTION_DOT>-.7701E-4</MEAN_MOTION_DOT><MEAN_MOTION_DDOT>0</MEAN_MOTION_DDOT></tleParameters></data></segment></body></omm>
<omm id="CCSDS_OMM_VERS" version="2.0">
<header><CREATION_DATE/><ORIGINATOR/></header><body><segment><metadata><OBJECT_NAME>KUIPER-00047</OBJECT_NAME><OBJECT_ID>2025-134H</OBJECT_ID><CENTER_NAME>EARTH</CENTER_NAME><REF_FRAME>TEME</REF_FRAME><TIME_SYSTEM>UTC</TIME_SYSTEM><MEAN_ELEMENT_THEORY>SGP4</MEAN_ELEMENT_THEORY></metadata><data><meanElements><EPOCH>2025-08-09T21:00:24.064128</EPOCH><MEAN_MOTION>15.34623408</MEAN_MOTION><ECCENTRICITY>.001047</ECCENTRICITY><INCLINATION>51.8618</INCLINATION><RA_OF_ASC_NODE>102.7428</RA_OF_ASC_NODE><ARG_OF_PERICENTER>301.0887</ARG_OF_PERICENTER><MEAN_ANOMALY>58.9070</MEAN_ANOMALY></meanElements><tleParameters><EPHEMERIS_TYPE>0</EPHEMERIS_TYPE><CLASSIFICATION_TYPE>U</CLASSIFICATION_TYPE><NORAD_CAT_ID>64507</NORAD_CAT_ID><ELEMENT_SET_NO>999</ELEMENT_SET_NO><REV_AT_EPOCH>806</REV_AT_EPOCH><BSTAR>.14052E-2</BSTAR><MEAN_MOTION_DOT>.47863E-3</MEAN_MOTION_DOT><MEAN_MOTION_DDOT>0</MEAN_MOTION_DDOT></tleParameters></data></segment></body></omm>
<omm id="CCSDS_OMM_VERS" version="2.0">
<header><CREATION_DATE/><ORIGINATOR/></header><body><segment><metadata><OBJECT_NAME>KUIPER-00048</OBJECT_NAME><OBJECT_ID>2025-134J</OBJECT_ID><CENTER_NAME>EARTH</CENTER_NAME><REF_FRAME>TEME</REF_FRAME><TIME_SYSTEM>UTC</TIME_SYSTEM><MEAN_ELEMENT_THEORY>SGP4</MEAN_ELEMENT_THEORY></metadata><data><meanElements><EPOCH>2025-08-09T21:05:51.586656</EPOCH><MEAN_MOTION>15.36683088</MEAN_MOTION><ECCENTRICITY>.0003567</ECCENTRICITY><INCLINATION>51.8756</INCLINATION><RA_OF_ASC_NODE>102.0864</RA_OF_ASC_NODE><ARG_OF_PERICENTER>274.0910</ARG_OF_PERICENTER><MEAN_ANOMALY>85.9668</MEAN_ANOMALY></meanElements><tleParameters><EPHEMERIS_TYPE>0</EPHEMERIS_TYPE><CLASSIFICATION_TYPE>U</CLASSIFICATION_TYPE><NORAD_CAT_ID>64508</NORAD_CAT_ID><ELEMENT_SET_NO>999</ELEMENT_SET_NO><REV_AT_EPOCH>807</REV_AT_EPOCH><BSTAR>.10916E-2</BSTAR><MEAN_MOTION_DOT>.39543E-3</MEAN_MOTION_DOT><MEAN_MOTION_DDOT>0</MEAN_MOTION_DDOT></tleParameters></data></segment></body></omm>
<omm id="CCSDS_OMM_VERS" version="2.0">
<header><CREATION_DATE/><ORIGINATOR/></header><body><segment><metadata><OBJECT_NAME>KUIPER-00049</OBJECT_NAME><OBJECT_ID>2025-134K</OBJECT_ID><CENTER_NAME>EARTH</CENTER_NAME><REF_FRAME>TEME</REF_FRAME><TIME_SYSTEM>UTC</TIME_SYSTEM><MEAN_ELEMENT_THEORY>SGP4</MEAN_ELEMENT_THEORY></metadata><data><meanElements><EPOCH>2025-08-09T20:12:11.305728</EPOCH><MEAN_MOTION>15.35859216</MEAN_MOTION><ECCENTRICITY>.0006293</ECCENTRICITY><INCLINATION>51.8716</INCLINATION><RA_OF_ASC_NODE>102.5631</RA_OF_ASC_NODE><ARG_OF_PERICENTER>263.1458</ARG_OF_PERICENTER><MEAN_ANOMALY>96.8812</MEAN_ANOMALY></meanElements><tleParameters><EPHEMERIS_TYPE>0</EPHEMERIS_TYPE><CLASSIFICATION_TYPE>U</CLASSIFICATION_TYPE><NORAD_CAT_ID>64509</NORAD_CAT_ID><ELEMENT_SET_NO>999</ELEMENT_SET_NO><REV_AT_EPOCH>850</REV_AT_EPOCH><BSTAR>.15705E-2</BSTAR><MEAN_MOTION_DOT>.55703E-3</MEAN_MOTION_DOT><MEAN_MOTION_DDOT>0</MEAN_MOTION_DDOT></tleParameters></data></segment></body></omm>
<omm id="CCSDS_OMM_VERS" version="2.0">
<header><CREATION_DATE/><ORIGINATOR/></header><body><segment><metadata><OBJECT_NAME>KUIPER-00050</OBJECT_NAME><OBJECT_ID>2025-134L</OBJECT_ID><CENTER_NAME>EARTH</CENTER_NAME><REF_FRAME>TEME</REF_FRAME><TIME_SYSTEM>UTC</TIME_SYSTEM><MEAN_ELEMENT_THEORY>SGP4</MEAN_ELEMENT_THEORY></metadata><data><meanElements><EPOCH>2025-08-09T20:23:01.244544</EPOCH><MEAN_MOTION>15.35381559</MEAN_MOTION><ECCENTRICITY>.0007157</ECCENTRICITY><INCLINATION>51.8727</INCLINATION><RA_OF_ASC_NODE>102.6146</RA_OF_ASC_NODE><ARG_OF_PERICENTER>270.6706</ARG_OF_PERICENTER><MEAN_ANOMALY>89.3460</MEAN_ANOMALY></meanElements><tleParameters><EPHEMERIS_TYPE>0</EPHEMERIS_TYPE><CLASSIFICATION_TYPE>U</CLASSIFICATION_TYPE><NORAD_CAT_ID>64510</NORAD_CAT_ID><ELEMENT_SET_NO>999</ELEMENT_SET_NO><REV_AT_EPOCH>806</REV_AT_EPOCH><BSTAR>.12717E-2</BSTAR><MEAN_MOTION_DOT>.44285E-3</MEAN_MOTION_DOT><MEAN_MOTION_DDOT>0</MEAN_MOTION_DDOT></tleParameters></data></segment></body></omm>
<omm id="CCSDS_OMM_VERS" version="2.0">
<header><CREATION_DATE/><ORIGINATOR/></header><body><segment><metadata><OBJECT_NAME>KUIPER-00051</OBJECT_NAME><OBJECT_ID>2025-134M</OBJECT_ID><CENTER_NAME>EARTH</CENTER_NAME><REF_FRAME>TEME</REF_FRAME><TIME_SYSTEM>UTC</TIME_SYSTEM><MEAN_ELEMENT_THEORY>SGP4</MEAN_ELEMENT_THEORY></metadata><data><meanElements><EPOCH>2025-08-09T20:02:07.005984</EPOCH><MEAN_MOTION>15.35716023</MEAN_MOTION><ECCENTRICITY>.0005588</ECCENTRICITY><INCLINATION>51.8734</INCLINATION><RA_OF_ASC_NODE>102.5252</RA_OF_ASC_NODE><ARG_OF_PERICENTER>263.0894</ARG_OF_PERICENTER><MEAN_ANOMALY>96.9456</MEAN_ANOMALY></meanElements><tleParameters><EPHEMERIS_TYPE>0</EPHEMERIS_TYPE><CLASSIFICATION_TYPE>U</CLASSIFICATION_TYPE><NORAD_CAT_ID>64511</NORAD_CAT_ID><ELEMENT_SET_NO>999</ELEMENT_SET_NO><REV_AT_EPOCH>844</REV_AT_EPOCH><BSTAR>.83349E-3</BSTAR><MEAN_MOTION_DOT>.29138E-3</MEAN_MOTION_DOT><MEAN_MOTION_DDOT>0</MEAN_MOTION_DDOT></tleParameters></data></segment></body></omm>
<omm id="CCSDS_OMM_VERS" version="2.0">
<header><CREATION_DATE/><ORIGINATOR/></header><body><segment><metadata><OBJECT_NAME>KUIPER-00052</OBJECT_NAME><OBJECT_ID>2025-134N</OBJECT_ID><CENTER_NAME>EARTH</CENTER_NAME><REF_FRAME>TEME</REF_FRAME><TIME_SYSTEM>UTC</TIME_SYSTEM><MEAN_ELEMENT_THEORY>SGP4</MEAN_ELEMENT_THEORY></metadata><data><meanElements><EPOCH>2025-08-09T22:00:01.999584</EPOCH><MEAN_MOTION>15.54188885</MEAN_MOTION><ECCENTRICITY>.0004664</ECCENTRICITY><INCLINATION>51.8759</INCLINATION><RA_OF_ASC_NODE>100.5436</RA_OF_ASC_NODE><ARG_OF_PERICENTER>306.9177</ARG_OF_PERICENTER><MEAN_ANOMALY>207.7012</MEAN_ANOMALY></meanElements><tleParameters><EPHEMERIS_TYPE>0</EPHEMERIS_TYPE><CLASSIFICATION_TYPE>U</CLASSIFICATION_TYPE><NORAD_CAT_ID>64512</NORAD_CAT_ID><ELEMENT_SET_NO>999</ELEMENT_SET_NO><REV_AT_EPOCH>809</REV_AT_EPOCH><BSTAR>-.76018E-3</BSTAR><MEAN_MOTION_DOT>-.50604E-3</MEAN_MOTION_DOT><MEAN_MOTION_DDOT>0</MEAN_MOTION_DDOT></tleParameters></data></segment></body></omm>

</ndm>
