KUIPER-00044            
1 64505U 25134F   25221.58335648 -.00983131  00000+0 -63073-1 0  9995
2 64505  51.8785 106.8015 0012065 286.2965  45.2228 15.10963054  3762
KUIPER-00046            
1 64506U 25134G   25221.91668981 -.00007701  00000+0 -37944-3 0  9992
2 64506  51.8740 104.0246 0009545 294.9108 302.8726 15.16021844  8043
KUIPER-00047            
1 64507U 25134H   25221.87527852  .00047863  00000+0  14052-2 0  9994
2 64507  51.8618 102.7428 0010470 301.0887  58.9070 15.34623408  8065
KUIPER-00048            
1 64508U 25134J   25221.87906929  .00039543  00000+0  10916-2 0  9992
2 64508  51.8756 102.0864 0003567 274.0910  85.9668 15.36683088  8077
KUIPER-00049            
1 64509U 25134K   25221.84179752  .00055703  00000+0  15705-2 0  9993
2 64509  51.8716 102.5631 0006293 263.1458  96.8812 15.35859216  8503
KUIPER-00050            
1 64510U 25134L   25221.84931996  .00044285  00000+0  12717-2 0  9994
2 64510  51.8727 102.6146 0007157 270.6706  89.3460 15.35381559  8065
KUIPER-00051            
1 64511U 25134M   25221.83480331  .00029138  00000+0  83349-3 0  9996
2 64511  51.8734 102.5252 0005588 263.0894  96.9456 15.35716023  8440
KUIPER-00052            
1 64512U 25134N   25221.91668981 -.00050604  00000+0 -76018-3 0  9994
2 64512  51.8759 100.5436 0004664 306.9177 207.7012 15.54188885  8096
